[{"OBJECT_NAME":"STARLINK-5593","OBJECT_ID":"2023-028Y","EPOCH":"2026-03-09T21:16:36.092640","MEAN_MOTION":14.98328248,"ECCENTRICITY":0.00030663,"INCLINATION":69.999,"RA_OF_ASC_NODE":243.7948,"ARG_OF_PERICENTER":268.3436,"MEAN_ANOMALY":91.7372,"EPHEMERIS_TYPE":0,"CLASSIFICATION_TYPE":"U","NORAD_CAT_ID":55763,"ELEMENT_SET_NO":999,"REV_AT_EPOCH":16607,"BSTAR":-3.5436797e-5,"MEAN_MOTION_DOT":-5.16e-6,"MEAN_MOTION_DDOT":0},{"OBJECT_NAME":"COSMOS 44","OBJECT_ID":"1964-053A","EPOCH":"2026-03-09T21:59:01.891968","MEAN_MOTION":14.65674855,"ECCENTRICITY":0.01500487,"INCLINATION":65.0577,"RA_OF_ASC_NODE":259.0656,"ARG_OF_PERICENTER":297.9455,"MEAN_ANOMALY":60.6525,"EPHEMERIS_TYPE":0,"CLASSIFICATION_TYPE":"U","NORAD_CAT_ID":876,"ELEMENT_SET_NO":999,"REV_AT_EPOCH":27412,"BSTAR":5.8309856e-5,"MEAN_MOTION_DOT":2.3e-6,"MEAN_MOTION_DDOT":0}]
